NORAD_CAT_ID,OBJECT_NAME,OBJECT_TYPE,EPOCH,MEAN_MOTION,ECCENTRICITY,INCLINATION,RA_OF_ASC_NODE,ARG_OF_PERICENTER,MEAN_ANOMALY,BSTAR,MEAN_MOTION_DOT,MEAN_MOTION_DDOT,TLE_LINE0,TLE_LINE1,TLE_LINE2,SEMIMAJOR_AXIS,PERIOD,APOGEE,PERIGEE,DECAYED
52542.0,STARLINK-3937,PAYLOAD,2024-03-14 05:15:54,15.08839524,0.0001597,53.2174,145.8841,109.7056,250.4109,4.6704e-05,4.55e-06,0.0,0 STARLINK-3937,1 52542U 22051K   24074.21938047  .00000455  00000-0  46704-4 0  9998,2 52542  53.2174 145.8841 0001597 109.7056 250.4109 15.08839524101999,6917.882,95.438,540.852,538.642,0.0
52542.0,STARLINK-3937,PAYLOAD,2024-03-14 11:37:26,15.0885096,0.0001505,53.2178,144.6959,106.7312,253.3845,1.2256e-06,-2.69e-06,0.0,0 STARLINK-3937,1 52542U 22051K   24074.48433448 -.00000269  00000-0  12256-5 0  9992,2 52542  53.2178 144.6959 0001505 106.7312 253.3845 15.08850960102033,6917.847,95.437,540.753,538.671,0.0
52542.0,STARLINK-3937,PAYLOAD,2024-03-15 05:06:41,15.08835448,0.0001484,53.2179,141.4242,98.8345,261.2815,1.1878e-05,-9.9e-07,0.0,0 STARLINK-3937,1 52542U 22051K   24075.21298497 -.00000099  00000-0  11878-4 0  9996,2 52542  53.2179 141.4242 0001484  98.8345 261.2815 15.08835448102148,6917.894,95.438,540.786,538.733,0.0
52542.0,STARLINK-3937,PAYLOAD,2024-03-15 11:28:14,15.08839106,0.0001695,53.2178,140.2348,97.9477,262.1707,-5.8545e-05,-1.22e-05,0.0,0 STARLINK-3937,1 52542U 22051K   24075.47794522 -.00001220  00000-0 -58545-4 0  9994,2 52542  53.2178 140.2348 0001695  97.9477 262.1707 15.08839106102113,6917.883,95.438,540.921,538.576,0.0
52542.0,STARLINK-3937,PAYLOAD,2024-03-16 12:54:24,15.08841261,0.0001498,53.2176,135.4774,93.9366,266.1798,2.5163e-05,1.13e-06,0.0,0 STARLINK-3937,1 52542U 22051K   24076.53778378  .00000113  00000-0  25163-4 0  9991,2 52542  53.2176 135.4774 0001498  93.9366 266.1798 15.08841261102348,6917.877,95.437,540.778,538.705,0.0
52542.0,STARLINK-3937,PAYLOAD,2024-03-17 03:12:53,15.08833639,0.0001501,53.2175,132.8026,95.9289,264.1874,6.9557e-05,8.19e-06,0.0,0 STARLINK-3937,1 52542U 22051K   24077.13394859  .00000819  00000-0  69557-4 0  9994,2 52542  53.2175 132.8026 0001501  95.9289 264.1874 15.08833639102432,6917.9,95.438,540.803,538.726,0.0
52542.0,STARLINK-3937,PAYLOAD,2024-03-17 11:09:49,15.0882968,0.0001587,53.2178,131.3138,87.6379,272.4795,0.00011059,1.472e-05,0.0,0 STARLINK-3937,1 52542U 22051K   24077.46515264  .00001472  00000-0  11059-3 0  9994,2 52542  53.2178 131.3138 0001587  87.6379 272.4795 15.08829680102418,6917.912,95.438,540.875,538.679,0.0
52542.0,STARLINK-3937,PAYLOAD,2024-03-18 11:00:35,15.08846594,0.0001554,53.217,126.853,83.7016,276.4154,8.6151e-05,1.084e-05,0.0,0 STARLINK-3937,1 52542U 22051K   24078.45874310  .00001084  00000-0  86151-4 0  9999,2 52542  53.2170 126.8530 0001554  83.7016 276.4154 15.08846594102634,6917.86,95.437,540.8,538.65,0.0
52542.0,STARLINK-3937,PAYLOAD,2024-03-19 02:54:27,15.08839306,0.0001622,53.217,123.8797,78.3847,281.7328,4.6928e-05,4.59e-06,0.0,0 STARLINK-3937,1 52542U 22051K   24079.12114921  .00000459  00000-0  46928-4 0  9992,2 52542  53.2170 123.8797 0001622  78.3847 281.7328 15.08839306102730,6917.883,95.438,540.87,538.625,0.0
52542.0,STARLINK-3937,PAYLOAD,2024-03-19 07:40:36,15.08839698,0.0001605,53.217,122.9873,79.7574,280.3599,4.6873e-05,4.58e-06,0.0,0 STARLINK-3937,1 52542U 22051K   24079.31986947  .00000458  00000-0  46873-4 0  9996,2 52542  53.2170 122.9873 0001605  79.7574 280.3599 15.08839698102692,6917.881,95.438,540.857,538.636,0.0
52542.0,STARLINK-3937,PAYLOAD,2024-03-20 09:06:46,15.08846288,0.0001616,53.2165,118.2294,86.6941,273.4236,4.5144e-05,4.31e-06,0.0,0 STARLINK-3937,1 52542U 22051K   24080.37970322  .00000431  00000-0  45144-4 0  9995,2 52542  53.2165 118.2294 0001616  86.6941 273.4236 15.08846288102928,6917.861,95.437,540.844,538.608,0.0
52542.0,STARLINK-3937,PAYLOAD,2024-03-20 12:17:32,15.08850817,0.0001736,53.2162,117.6319,102.3368,257.7819,5.6911e-05,6.18e-06,0.0,0 STARLINK-3937,1 52542U 22051K   24080.51217899  .00000618  00000-0  56911-4 0  9995,2 52542  53.2162 117.6319 0001736 102.3368 257.7819 15.08850817102877,6917.847,95.437,540.913,538.511,0.0
52542.0,STARLINK-3937,PAYLOAD,2024-03-21 02:36:01,15.08840128,0.000176,53.2162,114.9497,113.8095,246.3082,-3.7659e-05,-8.87e-06,0.0,0 STARLINK-3937,1 52542U 22051K   24081.10834789 -.00000887  00000-0 -37659-4 0  9992,2 52542  53.2162 114.9497 0001760 113.8095 246.3082 15.08840128103034,6917.88,95.438,540.963,538.527,0.0
52542.0,STARLINK-3937,PAYLOAD,2024-03-21 08:57:33,15.08838289,0.0001428,53.2163,113.767,98.1325,261.9829,2.0147e-05,3.3e-07,0.0,0 STARLINK-3937,1 52542U 22051K   24081.37330870  .00000033  00000-0  20147-4 0  9998,2 52542  53.2163 113.7670 0001428  98.1325 261.9829 15.08838289103001,6917.886,95.438,540.738,538.763,0.0
52542.0,STARLINK-3937,PAYLOAD,2024-03-21 18:29:52,15.0884036,0.0001343,53.2156,111.9781,91.9153,268.1992,5.2085e-05,5.41e-06,0.0,0 STARLINK-3937,1 52542U 22051K   24081.77074677  .00000541  00000-0  52085-4 0  9992,2 52542  53.2156 111.9781 0001343  91.9153 268.1992 15.08840360103061,6917.879,95.438,540.673,538.815,0.0
52542.0,STARLINK-3937,PAYLOAD,2024-03-22 05:37:34,15.08843596,0.0001446,53.216,109.9009,103.6333,256.482,-8.0685e-08,-2.89e-06,0.0,0 STARLINK-3937,1 52542U 22051K   24082.23442739 -.00000289  00000-0 -80685-7 0  9993,2 52542  53.2160 109.9009 0001446 103.6333 256.4820 15.08843596103201,6917.869,95.437,540.735,538.734,0.0
52542.0,STARLINK-3937,PAYLOAD,2024-03-22 08:48:20,15.08848481,0.000155,53.2165,109.307,106.5101,253.6061,5.1033e-05,5.24e-06,0.0,0 STARLINK-3937,1 52542U 22051K   24082.36690286  .00000524  00000-0  51033-4 0  9991,2 52542  53.2165 109.3070 0001550 106.5101 253.6061 15.08848481103157,6917.854,95.437,540.792,538.647,0.0
52542.0,STARLINK-3937,PAYLOAD,2024-03-23 05:28:22,15.08831166,0.0001608,53.2163,105.4402,106.8623,253.2546,3.5847e-05,2.82e-06,0.0,0 STARLINK-3937,1 52542U 22051K   24083.22803882  .00000282  00000-0  35847-4 0  9991,2 52542  53.2163 105.4402 0001608 106.8623 253.2546 15.08831166103355,6917.907,95.438,540.885,538.66,0.0
52542.0,STARLINK-3937,PAYLOAD,2024-03-23 18:11:27,15.08839298,0.0001511,53.2168,103.0618,101.5946,258.5216,9.5129e-05,1.226e-05,0.0,0 STARLINK-3937,1 52542U 22051K   24083.75795444  .00001226  00000-0  95129-4 0  9991,2 52542  53.2168 103.0618 0001511 101.5946 258.5216 15.08839298103431,6917.883,95.438,540.793,538.702,0.0
52542.0,STARLINK-3937,PAYLOAD,2024-03-24 10:05:17,15.08857336,0.0001701,53.2168,100.0881,104.2425,255.8756,0.00031377,4.711e-05,0.0,0 STARLINK-3937,1 52542U 22051K   24084.42034520  .00004711  00000-0  31377-3 0  9993,2 52542  53.2168 100.0881 0001701 104.2425 255.8756 15.08857336103536,6917.827,95.436,540.869,538.516,0.0
52542.0,STARLINK-3937,PAYLOAD,2024-03-24 18:02:14,15.08845886,0.0001963,53.2155,98.5995,88.8178,271.3039,0.00028375,4.231e-05,0.0,0 STARLINK-3937,1 52542U 22051K   24084.75155316  .00004231  00000-0  28375-3 0  9997,2 52542  53.2155  98.5995 0001963  88.8178 271.3039 15.08845886103580,6917.862,95.437,541.085,538.369,0.0
52542.0,STARLINK-3937,PAYLOAD,2024-03-25 05:09:56,15.08825818,0.000137,53.2146,96.5171,95.0513,265.0635,-0.00027269,-4.623e-05,0.0,0 STARLINK-3937,1 52542U 22051K   24085.21523749 -.00004623  00000-0 -27269-3 0  9996,2 52542  53.2146  96.5171 0001370  95.0513 265.0635 15.08825818103652,6917.924,95.438,540.736,538.841,0.0
52542.0,STARLINK-3937,PAYLOAD,2024-03-25 17:53:02,15.08824157,0.0001545,53.2158,94.1386,90.6512,269.4657,0.0006235,9.645e-05,0.0,0 STARLINK-3937,1 52542U 22051K   24085.74516725  .00009645  00000-0  62350-3 0  9997,2 52542  53.2158  94.1386 0001545  90.6512 269.4657 15.08824157103669,6917.929,95.439,540.863,538.725,0.0
52542.0,STARLINK-3937,PAYLOAD,2024-03-26 09:46:54,15.08843564,0.0001512,53.215,91.1644,91.2219,268.8946,0.0012129,0.0001907,0.0,0 STARLINK-3937,1 52542U 22051K   24086.40757232  .00019070  00000-0  12129-2 0  9992,2 52542  53.2150  91.1644 0001512  91.2219 268.8946 15.08843564103836,6917.869,95.437,540.78,538.689,0.0
52542.0,STARLINK-3937,PAYLOAD,2024-03-26 17:43:49,15.08850159,0.0001534,53.2155,89.6779,90.661,269.4557,0.00098145,0.00015371,0.0,0 STARLINK-3937,1 52542U 22051K   24086.73877052  .00015371  00000-0  98145-3 0  9994,2 52542  53.2155  89.6779 0001534  90.6610 269.4557 15.08850159103815,6917.849,95.437,540.776,538.653,0.0
52542.0,STARLINK-3937,PAYLOAD,2024-03-27 09:37:40,15.08879364,0.000156,53.2151,86.7042,91.126,268.9911,0.0011646,0.00018315,0.0,0 STARLINK-3937,1 52542U 22051K   24087.40115750  .00018315  00000-0  11646-2 0  9990,2 52542  53.2151  86.7042 0001560  91.1260 268.9911 15.08879364103916,6917.76,95.435,540.704,538.546,0.0
52542.0,STARLINK-3937,PAYLOAD,2024-03-28 04:42:17,15.08857435,0.0001454,53.216,83.1353,108.5788,251.5362,0.00041828,6.378e-05,0.0,0 STARLINK-3937,1 52542U 22051K   24088.19603526  .00006378  00000-0  41828-3 0  9992,2 52542  53.2160  83.1353 0001454 108.5788 251.5362 15.08857435104107,6917.827,95.436,540.698,538.686,0.0
52542.0,STARLINK-3937,PAYLOAD,2024-03-28 09:28:26,15.08856648,0.000132,53.2161,82.2434,97.0062,263.108,0.00060358,9.335e-05,0.0,0 STARLINK-3937,1 52542U 22051K   24088.39475533  .00009335  00000-0  60358-3 0  9994,2 52542  53.2161  82.2434 0001320  97.0062 263.1080 15.08856648104063,6917.83,95.437,540.608,538.781,0.0
52542.0,STARLINK-3937,PAYLOAD,2024-03-29 04:33:04,15.08844918,0.000142,53.2167,78.6729,102.0019,258.1132,0.00024415,3.6e-05,0.0,0 STARLINK-3937,1 52542U 22051K   24089.18963674  .00003600  00000-0  24415-3 0  9993,2 52542  53.2167  78.6729 0001420 102.0019 258.1132 15.08844918104255,6917.865,95.437,540.713,538.748,0.0
52542.0,STARLINK-3937,PAYLOAD,2024-03-29 06:08:27,15.0884844,0.000135,53.2167,78.3774,102.5203,257.594,0.00017536,2.505e-05,0.0,0 STARLINK-3937,1 52542U 22051K   24089.25587508  .00002505  00000-0  17536-3 0  9998,2 52542  53.2167  78.3774 0001350 102.5203 257.5940 15.08848440104191,6917.855,95.437,540.654,538.786,0.0
